EXCITE                  
1 43819U 18099BP  26068.69809098  .00002813  00000+0  19631-3 0  9999
2 43819  97.4107 111.3606 0017626 337.4818  22.5634 15.06036758396774
STARLINK-6219           
1 56892U 23083S   26068.36161319 -.00000711  00000+0 -37534-4 0  9994
2 56892  43.0042  83.3325 0001198 266.4693  93.6012 15.02536913151625
